ANIK F2                 
1 28378U 04027A   24360.48026990 -.00000023  00000+0  00000+0 0  9998
2 28378   1.8920  86.6741 0000579 305.6587 123.9035  1.00271731 35864
AMC-15                  
1 28446U 04041A   24360.25586793 -.00000062  00000+0  00000+0 0  9990
2 28446   0.0228  35.5634 0002159 239.6780 166.1012  1.00272793 73914
NSS-10                  
1 28526U 05003A   24360.45016769 -.00000228  00000+0  00000+0 0  9995
2 28526   5.0985  76.9470 0002890 209.1935 292.9148  1.00271241 47759
XTAR-EUR                
1 28542U 05005A   24359.88932562  .00000174  00000+0  00000+0 0  9997
2 28542   2.9416  83.4473 0006484 203.1143 156.4704  1.00272776 72783
XM-3 (RHYTHM)           
1 28626U 05008A   24358.14146661 -.00000185  00000+0  00000+0 0  9991
2 28626   0.0100 349.3445 0004652 230.4559 198.1369  1.00267203 37192
INMARSAT 4-F1           
1 28628U 05009A   24360.57129375  .00000056  00000+0  00000+0 0  9993
2 28628   4.4871  41.7584 0002426 248.7151 187.8263  1.00272121 72261
DIRECTV 8               
1 28659U 05019A   24360.50542372  .00000028  00000+0  00000+0 0  9996
2 28659   0.0156  32.1110 0002907 250.7627 234.5426  1.00272846 71788
GALAXY 28 (G-28)        
1 28702U 05022A   24360.51133161 -.00000159  00000+0  00000+0 0  9998
2 28702   1.9071  85.6643 0006934 189.8998 274.0061  1.00271800 46587
THAICOM 4               
1 28786U 05028A   24360.33843927 -.00000336  00000+0  00000+0 0  9991
2 28786   0.0186   7.1009 0002242 262.2085  66.3477  1.00271294 46841
GALAXY 14 (G-14)        
1 28790U 05030A   24360.38830872 -.00000084  00000+0  00000+0 0  9999
2 28790   3.6308  81.4861 0001008 186.7654 339.1950  0.98945591 70896
ANIK F1R                
1 28868U 05036A   24360.50776951 -.00000049  00000+0  00000+0 0  9993
2 28868   2.9275  83.3017 0001165 197.6907 249.0264  1.00271895 41053
SYRACUSE 3A             
1 28885U 05041B   24360.31897802  .00000154  00000+0  00000+0 0  9992
2 28885   3.2651  82.5695 0002713 194.9005 313.4463  1.00271500 70340
INMARSAT 4-F2           
1 28899U 05044A   24360.58725706 -.00000237  00000+0  00000+0 0  9995
2 28899   4.4078  43.0810 0002935 238.1694 168.2337  1.00271167 70124
SPACEWAY 2              
1 28903U 05046B   24360.60925882  .00000048  00000+0  00000+0 0  9992
2 28903   4.0878  77.9399 0002109  76.4108 242.5312  0.99059813 45937
METEOSAT-9 (MSG-2)      
1 28912U 05049B   24331.84702219  .00000144  00000+0  00000+0 0  9993
2 28912   8.0635  59.4636 0001814 203.9464 153.5423  1.00276594  1313
EUTELSAT 174A           
1 28924U 05052A   24360.60368309  .00000034  00000+0  00000+0 0  9992
2 28924   2.8494  83.2080 0006129 193.5393 209.1417  1.00270789 46936
ECHOSTAR 10             
1 28935U 06003A   24360.50716133 -.00000028  00000+0  00000+0 0  9996
2 28935   0.0210 316.9263 0002452 273.2982 296.6741  1.00271333 69064
SPAINSAT                
1 28945U 06007A   24359.82249914 -.00000190  00000+0  00000+0 0  9992
2 28945   0.0378 246.2530 0005126  12.1954 101.4993  1.00272201 68811
EUTELSAT HOTBIRD 13E    
1 28946U 06007B   24360.41577355 -.00000099  00000+0  00000+0 0  9991
2 28946   0.7072  94.2569 0000758 138.0040 355.8424  1.00271461 68926
JCSAT-5A                
1 29045U 06010A   24360.58487410 -.00000300  00000+0  00000+0 0  9991
2 29045   0.0198 291.5125 0001684 347.9398 157.7449  1.00272534 68361
ASTRA 1KR               
1 29055U 06012A   24360.10415792  .00000146  00000+0  00000+0 0  9993
2 29055   0.0157 333.7260 0005244 293.3192 243.7547  1.00274140 40313
EWS-G1 (GOES 13)        
1 29155U 06018A   24360.17696384 -.00000024  00000+0  00000+0 0  9991
2 29155   3.1259  83.0037 0064764 257.7359 203.7057  0.98831801 37923
GALAXY 16 (G-16)        
1 29236U 06023A   24360.50942024 -.00000099  00000+0  00000+0 0  9991
2 29236   0.0099 291.7799 0002554 353.1551 253.9544  1.00271783 67571
EUTELSAT HOTBIRD 13B    
1 29270U 06032A   24360.46415545  .00000182  00000+0  00000+0 0  9999
2 29270   0.2668  86.1389 0003798 203.8057   4.6962  1.00269637 41906
JCSAT-3A                
1 29272U 06033A   24360.10257834 -.00000319  00000+0  00000+0 0  9991
2 29272   0.0172   0.1102 0001717 272.8991 346.0304  1.00271621 42334
SYRACUSE 3B             
1 29273U 06033B   24360.39910786  .00000048  00000+0  00000+0 0  9993
2 29273   1.5152  87.0110 0005421 194.1179 320.2885  1.00273727 67279
KOREASAT 5 (MUGUNGWHA 5)
1 29349U 06034A   24360.62553583 -.00000331  00000+0  00000+0 0  9998
2 29349   0.3870  91.6342 0001858 226.2160 115.0190  1.00270648 35916
DIRECTV 9S              
1 29494U 06043A   24360.50898583 -.00000086  00000+0  00000+0 0  9995
2 29494   1.0264  87.5011 0002952 192.8730 256.1607  1.00271719 45984
OPTUS D1                
1 29495U 06043B   24360.60799955 -.00000157  00000+0  00000+0 0  9999
2 29495   1.6412  86.4258 0003694 190.5545 188.5019  1.00273190 66725
BADR-4                  
1 29526U 06051A   24360.31984682  .00000171  00000+0  00000+0 0  9999
2 29526   0.6103  85.8614 0008287 212.0806 297.7436  1.00271517 45867
WILDBLUE-1              
1 29643U 06054A   24360.48026948 -.00000023  00000+0  00000+0 0  9999
2 29643   1.4083  87.5815 0001706 183.9203 244.6887  1.00272201 48394
SKYNET 5A               
1 30794U 07007B   24360.54799521 -.00000247  00000+0  00000+0 0  9996
2 30794   3.9240  80.2587 0004431 203.6722 103.0882  1.00271639 65290
ANIK F3                 
1 31102U 07009A   24360.50551060  .00000026  00000+0  00000+0 0  9996
2 31102   0.0251  18.0188 0001845 271.2346 228.5289  1.00270979 41169
ASTRA 1L                
1 31306U 07016A   24360.24698958  .00000147  00000+0  00000+0 0  9993
2 31306   0.0463 348.7143 0006527 299.9133 273.7439  1.00274712 39588
GALAXY 17 (G-17)        
1 31307U 07016B   24360.51220042 -.00000180  00000+0  00000+0 0  9997
2 31307   1.6030  86.8445 0007300 207.5522 259.5116  1.00272877 64401
ZHONGXING-6B            
1 31800U 07031A   24360.57396082 -.00000335  00000+0  00000+0 0  9998
2 31800   1.0060  88.4333 0004788 193.8807 134.1447  1.00268267 64021
DIRECTV 10              
1 31862U 07032A   24360.50863830 -.00000076  00000+0  00000+0 0  9992
2 31862   0.0067 112.2096 0000418 206.7903 215.8262  1.00272959 40191
BSAT-3A                 
1 32019U 07036B   24360.56857884 -.00000323  00000+0  00000+0 0  9994
2 32019   0.0485 218.0775 0003839  36.3442 154.6726  1.00270493 45128
OPTUS D2                
1 32252U 07044A   24360.61641163 -.00000082  00000+0  00000+0 0  9991
2 32252   0.6776  89.0372 0006976 188.0890 199.5240  1.00272033 63178
INTELSAT 11 (IS-11)     
1 32253U 07044B   24360.44903823 -.00000243  00000+0  00000+0 0  9996
2 32253   2.1602  85.3809 0004274 204.9196 282.7831  1.00270411 63094
WGS F1 (USA 195)        
1 32258U 07046A   24360.32966241 -.00000240  00000+0  00000+0 0  9990
2 32258   0.0922  89.3393 0000474 239.3475 201.8367  1.00272052 46936
SKYNET 5B               
1 32294U 07056B   24360.46259161  .00000165  00000+0  00000+0 0  9997
2 32294   3.8762  79.9228 0004177 196.4807   9.6500  1.00270183 62795
ASTRA 4A                
1 32299U 07057A   24360.40466204  .00000059  00000+0  00000+0 0  9997
2 32299   0.0180 328.7371 0002715 298.8826 337.2795  1.00270216 46246
HORIZONS-2              
1 32388U 07063B   24360.51437243 -.00000227  00000+0  00000+0 0  9994
2 32388   1.2081  87.3710 0001843 191.6417 286.8891  1.00271303 62411
THURAYA-3               
1 32404U 08001A   24360.47718753 -.00000280  00000+0  00000+0 0  9998
2 32404   5.1221  33.8434 0002463 250.3717  80.5422  1.00270884 62088
THOR 5                  
1 32487U 08006A   24360.40466204  .00000018  00000+0  00000+0 0  9996
2 32487   0.0395 259.7614 0002270  17.4413 322.1329  1.00270761 61911
AMC-14                  
1 32708U 08011A   24360.24681583  .00000078  00000+0  00000+0 0  9995
2 32708  23.3367  27.0055 0039868 350.3810 183.1841  1.00273160 62766
DIRECTV 11              
1 32729U 08013A   24360.50933334 -.00000099  00000+0  00000+0 0  9997
2 32729   0.0181 182.5478 0000321  52.6906 303.4486  1.00273440 40197
ICO G1                  
1 32763U 08016A   24360.23382649 -.00000150  00000+0  00000+0 0  9993
2 32763   5.2001  36.2157 0002298 244.2096 165.1263  1.00270552 61141
VINASAT-1               
1 32767U 08018A   24360.09702118 -.00000302  00000+0  00000+0 0  9999
2 32767   0.0253 306.6226 0001878 346.5697 327.7716  1.00271494 61183
STAR ONE C2             
1 32768U 08018B   24360.51611003 -.00000249  00000+0  00000+0 0  9999
2 32768   0.0270 345.8478 0002473 295.8182 293.6451  1.00269664 61255
AMOS-3                  
1 32794U 08022A   24360.40466204 -.00000008  00000+0  00000+0 0  9995
2 32794   0.0229  99.0499 0002718 162.9281 333.9854  1.00272072 76938
GALAXY 18 (G-18)        
1 32951U 08024A   24360.59173078  .00000053  00000+0  00000+0 0  9995
2 32951   0.0167 327.2782 0002845 305.2510 272.0740  1.00270727 40453
ZHONGXING-9             
1 33051U 08028A   24360.54738704 -.00000220  00000+0  00000+0 0  9996
2 33051   0.0194  36.1399 0004251 261.1543  86.5042  1.00270138 60635
SKYNET 5C               
1 33055U 08030A   24360.45407731 -.00000114  00000+0  00000+0 0  9998
2 33055   2.4021  83.3372 0004921 202.7436 314.0224  1.00271473 60550
TURKSAT 3A              
1 33056U 08030B   24360.25150737  .00000172  00000+0  00000+0 0  9991
2 33056   0.0397 103.9154 0002664 167.5930 315.2904  1.00274086 46956
INTELSAT 25 (IS-25)     
1 33153U 08034A   24360.45129713 -.00000197  00000+0  00000+0 0  9993
2 33153   1.3148  87.0419 0003023 192.1945 306.1799  1.00272973 60295
BADR-6                  
1 33154U 08034B   24360.62660678 -.00000177  00000+0  00000+0 0  9991
2 33154   1.4572  85.3705 0004803 302.6242 106.0195  0.98748043 60358
ECHOSTAR 11             
1 33207U 08035A   24360.30136560 -.00000030  00000+0  00000+0 0  9992
2 33207   0.0120  46.9774 0002272 229.3465 176.4693  1.00272220 45811
